IRIDIUM 150             
1 43257U 18030J   25296.49332679  .00000588  00000+0  20275-3 0  9999
2 43257  86.4011  29.4020 0001960  92.3187 267.8233 14.34216620396239
IRIDIUM 143             
1 43258U 18030K   25296.54406811  .00000285  00000+0  94554-4 0  9992
2 43258  86.4014  29.4642 0001733  92.2761 267.8634 14.34215996396171
IRIDIUM 161             
1 43478U 18047C   25296.68150224  .00000516  00000+0  14741-3 0  9999
2 43478  86.4555 187.2735 0002313  83.0743 277.0721 14.43270782391027
IRIDIUM 147             
1 43480U 18047E   25296.66266614  .00000164  00000+0  51654-4 0  9995
2 43480  86.4031 187.1434 0002151  86.0673 274.0768 14.34216701388585
IRIDIUM 110             
1 43481U 18047F   25296.66900900  .00000239  00000+0  78458-4 0  9993
2 43481  86.4033 187.2260 0002593  87.7227 272.4266 14.34216862388571
IRIDIUM 162             
1 43482U 18047G   25296.67520426  .00000337  00000+0  94318-4 0  9998
2 43482  86.4555 187.1703 0002424  79.0472 281.1002 14.43275093391010
IRIDIUM 160             
1 43569U 18061A   25296.68461306  .00000165  00000+0  51728-4 0  9999
2 43569  86.3998 155.6610 0002253  90.7084 269.4370 14.34217222379475
